{
  "type": "FeatureCollection",
  "features": [
    {
      "type": "Feature",
      "properties": {
        "name": "Beispiel-Ulme Hamburg",
        "description": "Platzhalter – echter Datensatz folgt."
      },
      "geometry": { "type": "Point", "coordinates": [9.9937, 53.5511] }
    },
    {
      "type": "Feature",
      "properties": {
        "name": "Beispiel-Ulme München",
        "description": "Platzhalter – echter Datensatz folgt."
      },
      "geometry": { "type": "Point", "coordinates": [11.5820, 48.1351] }
    },
    {
      "type": "Feature",
      "properties": {
        "name": "Beispiel-Ulme Leipzig",
        "description": "Platzhalter – echter Datensatz folgt."
      },
      "geometry": { "type": "Point", "coordinates": [12.3731, 51.3397] }
    }
  ]
}
